[{"OBJECT_NAME":"STARLINK-34570","OBJECT_ID":"2025-152U","EPOCH":"2026-03-09T13:17:59.209728","MEAN_MOTION":15.05651495,"ECCENTRICITY":0.00016056,"INCLINATION":97.6024,"RA_OF_ASC_NODE":285.3323,"ARG_OF_PERICENTER":87.4298,"MEAN_ANOMALY":272.7113,"EPHEMERIS_TYPE":0,"CLASSIFICATION_TYPE":"U","NORAD_CAT_ID":64860,"ELEMENT_SET_NO":999,"REV_AT_EPOCH":3539,"BSTAR":0.00021329761,"MEAN_MOTION_DOT":3.018e-5,"MEAN_MOTION_DDOT":0},{"OBJECT_NAME":"HAMSAT (VO-52)","OBJECT_ID":"2005-017B","EPOCH":"2026-03-09T22:34:09.009120","MEAN_MOTION":15.08773202,"ECCENTRICITY":0.00200128,"INCLINATION":97.9995,"RA_OF_ASC_NODE":87.8294,"ARG_OF_PERICENTER":17.3795,"MEAN_ANOMALY":342.8113,"EPHEMERIS_TYPE":0,"CLASSIFICATION_TYPE":"U","NORAD_CAT_ID":28650,"ELEMENT_SET_NO":999,"REV_AT_EPOCH":13179,"BSTAR":0.00045282519,"MEAN_MOTION_DOT":7.08e-5,"MEAN_MOTION_DDOT":0}]
